[{"OBJECT_NAME":"STARLINK-3397","OBJECT_ID":"2022-005M","EPOCH":"2026-03-09T21:06:18.379296","MEAN_MOTION":15.08815755,"ECCENTRICITY":0.00013452,"INCLINATION":53.2187,"RA_OF_ASC_NODE":288.2684,"ARG_OF_PERICENTER":114.7264,"MEAN_ANOMALY":245.3868,"EPHEMERIS_TYPE":0,"CLASSIFICATION_TYPE":"U","NORAD_CAT_ID":51115,"ELEMENT_SET_NO":999,"REV_AT_EPOCH":22890,"BSTAR":6.9190501e-5,"MEAN_MOTION_DOT":8.13e-6,"MEAN_MOTION_DDOT":0},{"OBJECT_NAME":"OBJECT B","OBJECT_ID":"2024-174B","EPOCH":"2026-03-09T23:26:11.570784","MEAN_MOTION":15.09493991,"ECCENTRICITY":0.00195829,"INCLINATION":97.4508,"RA_OF_ASC_NODE":75.153,"ARG_OF_PERICENTER":270.277,"MEAN_ANOMALY":89.6216,"EPHEMERIS_TYPE":0,"CLASSIFICATION_TYPE":"U","NORAD_CAT_ID":61239,"ELEMENT_SET_NO":999,"REV_AT_EPOCH":8042,"BSTAR":0.00031274192,"MEAN_MOTION_DOT":4.97e-5,"MEAN_MOTION_DDOT":0}]
